PROBA-1                 
1 26958U 01049B   19068.81138436 -.00000200  00000-0 -11864-4 0  9990
2 26958  97.6544  27.3819 0073848  18.0282 342.3586 14.95343502945755
BIRD 2                  
1 26959U 01049C   19067.53954276  .00001463  00000-0  43566-4 0  9991
2 26959  97.8633  63.6950 0007346 321.7487  38.3233 15.36540957962903
CUTE-1 (CO-55)          
1 27844U 03031E   19068.76431412  .00000030  00000-0  33154-4 0  9997
2 27844  98.6869  78.4740 0009151 328.9919  31.0718 14.22163662813948
CUBESAT XI-IV (CO-57)   
1 27848U 03031J   19068.86854461  .00000022  00000-0  30088-4 0  9999
2 27848  98.6948  79.0534 0009237 340.5217  19.5606 14.21760848813815
GENESIS 1               
1 29252U 06029A   19068.40896639  .00000434  00000-0  31217-4 0  9995
2 29252  64.5027  25.6750 0053777 255.6614 103.8534 15.17601674697441
FALCONSAT-3             
1 30776U 07006E   19068.15981094  .00002837  00000-0  81174-4 0  9992
2 30776  35.4367  18.4454 0003930 269.4290  90.5986 15.35704454665064
GENESIS 2               
1 31789U 07028A   19068.17275559  .00000288  00000-0  24813-4 0  9990
2 31789  64.5033  66.8026 0043334 302.2009  57.4915 15.16833994644433
APRIZESAT 4             
1 35684U 09041D   19068.44685444  .00000033  00000-0  12097-4 0  9992
2 35684  98.2132  30.4943 0046181 228.5614 131.1625 14.79188847518295
APRIZESAT 3             
1 35686U 09041F   19067.91223196  .00000052  00000-0  12275-4 0  9996
2 35686  98.2476 103.5758 0074087 126.5405 234.2660 14.87280181520734
PROBA-2                 
1 36037U 09059B   19068.51059646 -.00000012  00000-0  78846-5 0  9994
2 36037  98.2353 261.3850 0013145 190.0313 170.0623 14.53063850495661
APRIZESAT 5             
1 37792U 11044E   19068.48899324  .00000057  00000-0  16759-4 0  9993
2 37792  98.4090 243.6782 0057775 205.9096 153.9216 14.75298938406793
APRIZESAT 6             
1 37793U 11044F   19068.42303679  .00000043  00000-0  15475-4 0  9990
2 37793  98.3731 222.4028 0045954 236.8234 180.7152 14.72369261406002
TET-1                   
1 38710U 12039D   19068.15090739  .00002670  00000-0  51183-4 0  9999
2 38710  97.6169  64.2145 0003273  89.7953 270.3673 15.49011894371659
STSAT-2C                
1 39068U 13003A   19068.84652487  .00049151 -83652-7  22658-3 0  9999
2 39068  80.1817 347.9603 0182932 129.2144 232.5512 15.62697861329446
PROBA-V                 
1 39159U 13021A   19068.66959067  .00000001  00000-0  19419-4 0  9995
2 39159  98.5238 137.4952 0003957 351.3867   8.7245 14.22970568303266
STPSAT-3                
1 39380U 13064A   19068.84418560  .00001233  00000-0  39817-4 0  9998
2 39380  40.5016 339.4635 0002025 141.1164 218.9797 15.36685370296768
APRIZESAT 7             
1 39416U 13066A   19068.08929533  .00000031  00000-0  98387-5 0  9996
2 39416  97.5553  97.5983 0040703 342.7410  17.2419 14.83866804286632
APRIZESAT 8             
1 39425U 13066K   19068.03081007  .00000047  00000-0  12462-4 0  9992
2 39425  97.5623  88.9883 0052033   4.7884 355.3816 14.81093789286125
BUGSAT-1 (TITA)         
1 40014U 14033E   19068.79402209  .00000357  00000-0  37824-4 0  9990
2 40014  98.0048  14.1492 0032671  37.1076 323.2418 14.95209817257423
SAUDISAT 4              
1 40016U 14033G   19068.78635355  .00000031  00000-0  11831-4 0  9990
2 40016  97.7789 305.1967 0049554  53.7034 306.8738 14.75227305254125
APRIZESAT 9             
1 40018U 14033J   19068.66310877  .00000052  00000-0  16131-4 0  9999
2 40018  97.7568 288.2105 0072923  91.7443 269.2118 14.69916411253106
APRIZESAT 10            
1 40019U 14033K   19068.81216950  .00000000  00000-0  82004-5 0  9990
2 40019  97.7552 279.6994 0085632 113.6697 247.3524 14.66979631252675
TDS 1                   
1 40076U 14037H   19068.13420654 -.00000120  00000-0 -72757-5 0  9999
2 40076  98.3985 216.7565 0006591 326.2107  33.8692 14.83976370252294
TIANTUO 2               
1 40144U 14053B   19068.83196512  .00000620  00000-0  21010-4 0  9991
2 40144  97.2783 153.9393 0011222 166.6385 289.7700 15.34221939251658
TECHNOSAT               
1 42829U 17042E   19068.74124574  .00000133  00000-0  18884-4 0  9997
2 42829  97.5758 325.7512 0015252  40.7407 319.4949 14.90931891 89898
FLYING LAPTOP           
1 42831U 17042G   19068.19271903  .00000267  00000-0  32372-4 0  9994
2 42831  97.5768 325.2788 0015217  42.7085 317.5313 14.90962352 89819
HAWK-A                  
1 43765U 18099H   19068.13573946  .00000318  00000-0  33614-4 0  9997
2 43765  97.7518 141.4162 0013951 318.7406  41.2760 14.95937224 14259
HAWK-B                  
1 43794U 18099AN  19068.20301211  .00000343  00000-0  35838-4 0  9999
2 43794  97.7517 141.4828 0014003 318.6222  41.3938 14.95937011 14255
HAWK-C                  
1 43799U 18099AT  19068.40348335  .00000380  00000-0  39145-4 0  9990
2 43799  97.7518 141.5982 0013862 317.5309  42.4838 14.95938754 14299
